{"id":"29270","noradId":"29270","name":"EUTELSAT 33F","line1":"1 29270U 06032A   26165.62393792  .00000161  00000+0  00000+0 0  9998","line2":"2 29270   1.6550  82.2700 0003667 359.4356  78.9305  1.00268988 47280","kind":"satellite","owner":"Commercial GEO","country":"EUTE","countryCode":"EUTE","objectType":"PAYLOAD","intlDesignator":"2006-032A","launchDate":"2006-08-04","rcs":"LARGE","rcsM2":31.6228,"periodMinutes":1436.14,"inclinationDeg":1.65,"apogeeKm":35803,"perigeeKm":35772,"source":"offline","sourceUrl":"https://celestrak.org/NORAD/elements/gp.php?GROUP=geo&FORMAT=tle","tleEpochUtc":"2026-06-14T14:58:28.236Z","orbitClass":"GEO"},{"id":"29272","noradId":"29272","name":"JCSAT-3A","line1":"1 29272U 06033A   26165.59100068 -.00000338  00000+0  00000+0 0  9996","line2":"2 29272   0.0118   0.5274 0001874  90.7048 152.4166  1.00270367 47710","kind":"satellite","owner":"Japan (JAXA)","country":"Japan (JAXA)","countryCode":"JPN","objectType":"PAYLOAD","intlDesignator":"2006-033A","launchDate":"2006-08-11","rcs":"LARGE","rcsM2":31.6228,"periodMinutes":1436.11,"inclinationDeg":0.01,"apogeeKm":35795,"perigeeKm":35779,"source":"offline","sourceUrl":"https://celestrak.org/NORAD/elements/gp.php?GROUP=geo&FORMAT=tle","tleEpochUtc":"2026-06-14T14:11:02.458Z","orbitClass":"GEO"},{"id":"29349","noradId":"29349","name":"KOREASAT 5 (MUGUNGWHA 5)","line1":"1 29349U 06034A   26165.57862000 -.00000352  00000+0  00000+0 0  9997","line2":"2 29349   1.7786  83.0168 0001346  50.7832  90.4443  1.00271031 41298","kind":"satellite","owner":"South Korea","country":"South Korea","countryCode":"SKOR","objectType":"PAYLOAD","intlDesignator":"2006-034A","launchDate":"2006-08-22","rcs":"LARGE","rcsM2":25.1189,"periodMinutes":1436.1,"inclinationDeg":1.78,"apogeeKm":35792,"perigeeKm":35781,"source":"offline","sourceUrl":"https://celestrak.org/NORAD/elements/gp.php?GROUP=geo&FORMAT=tle","tleEpochUtc":"2026-06-14T13:53:12.768Z","orbitClass":"GEO"},{"id":"29494","noradId":"29494","name":"DIRECTV 9S","line1":"1 29494U 06043A   26165.59733112 -.00000108  00000+0  00000+0 0  9990","line2":"2 29494   2.4141  80.9318 0004831  11.4469 284.3646  1.00270819 51357","kind":"satellite","owner":"United States","country":"United States","countryCode":"US","objectType":"PAYLOAD","intlDesignator":"2006-043A","launchDate":"2006-10-13","rcs":"LARGE","rcsM2":271.1266,"periodMinutes":1436.11,"inclinationDeg":2.41,"apogeeKm":35807,"perigeeKm":35766,"source":"offline","sourceUrl":"https://celestrak.org/NORAD/elements/gp.php?GROUP=geo&FORMAT=tle","tleEpochUtc":"2026-06-14T14:20:09.408Z","orbitClass":"GEO"},{"id":"29495","noradId":"29495","name":"OPTUS D1","line1":"1 29495U 06043B   26165.51642127 -.00000179  00000+0  00000+0 0  9996","line2":"2 29495   3.0280  79.6869 0003327 358.7199 162.3027  1.00269854 72090","kind":"satellite","owner":"AUS","country":"AUS","countryCode":"AUS","objectType":"PAYLOAD","intlDesignator":"2006-043B","launchDate":"2006-10-13","rcs":"LARGE","rcsM2":3.9811,"periodMinutes":1436.12,"inclinationDeg":3.02,"apogeeKm":35801,"perigeeKm":35773,"source":"offline","sourceUrl":"https://celestrak.org/NORAD/elements/gp.php?GROUP=geo&FORMAT=tle","tleEpochUtc":"2026-06-14T12:23:38.797Z","orbitClass":"GEO"},{"id":"29526","noradId":"29526","name":"BADR-4","line1":"1 29526U 06051A   26165.62428458  .00000161  00000+0  00000+0 0  9991","line2":"2 29526   1.9982  81.1472 0004715 353.4169  87.5401  1.00269580 51244","kind":"satellite","owner":"AB","country":"AB","countryCode":"AB","objectType":"PAYLOAD","intlDesignator":"2006-051A","launchDate":"2006-11-08","rcs":"SMALL","rcsM2":0.003,"periodMinutes":1436.14,"inclinationDeg":2,"apogeeKm":35807,"perigeeKm":35767,"source":"offline","sourceUrl":"https://celestrak.org/NORAD/elements/gp.php?GROUP=geo&FORMAT=tle","tleEpochUtc":"2026-06-14T14:58:58.187Z","orbitClass":"GEO"},{"id":"29643","noradId":"29643","name":"WILDBLUE-1","line1":"1 29643U 06054A   26165.59542444 -.00000044  00000+0  00000+0 0  9993","line2":"2 29643   2.7965  80.5140 0001234 359.2313 286.2964  1.00270389 53767","kind":"satellite","owner":"United States","country":"United States","countryCode":"US","objectType":"PAYLOAD","intlDesignator":"2006-054A","launchDate":"2006-12-08","rcs":"LARGE","rcsM2":262.6219,"periodMinutes":1436.12,"inclinationDeg":2.79,"apogeeKm":35792,"perigeeKm":35782,"source":"offline","sourceUrl":"https://celestrak.org/NORAD/elements/gp.php?GROUP=geo&FORMAT=tle","tleEpochUtc":"2026-06-14T14:17:24.671Z","orbitClass":"GEO"},{"id":"30794","noradId":"30794","name":"SKYNET 5A","line1":"1 30794U 07007B   26165.27977988 -.00000267  00000+0  00000+0 0  9998","line2":"2 30794   5.2935  73.7769 0004053  15.5800   9.1586  1.00270215 70676","kind":"satellite","owner":"United Kingdom","country":"United Kingdom","countryCode":"UK","objectType":"PAYLOAD","intlDesignator":"2007-007B","launchDate":"2007-03-11","rcs":"LARGE","rcsM2":41.806,"periodMinutes":1436.11,"inclinationDeg":5.29,"apogeeKm":35804,"perigeeKm":35770,"source":"offline","sourceUrl":"https://celestrak.org/NORAD/elements/gp.php?GROUP=geo&FORMAT=tle","tleEpochUtc":"2026-06-14T06:42:52.981Z","orbitClass":"GEO"},{"id":"31102","noradId":"31102","name":"ANIK F3","line1":"1 31102U 07009A   26165.59386444  .00000005  00000+0  00000+0 0  9999","line2":"2 31102   1.1908  83.8761 0002412 357.4192 276.6445  1.00271528 46539","kind":"satellite","owner":"CA","country":"CA","countryCode":"CA","objectType":"PAYLOAD","intlDesignator":"2007-009A","launchDate":"2007-04-09","rcs":"LARGE","rcsM2":28.2172,"periodMinutes":1436.1,"inclinationDeg":1.19,"apogeeKm":35797,"perigeeKm":35776,"source":"offline","sourceUrl":"https://celestrak.org/NORAD/elements/gp.php?GROUP=geo&FORMAT=tle","tleEpochUtc":"2026-06-14T14:15:09.887Z","orbitClass":"GEO"},{"id":"31306","noradId":"31306","name":"ASTRA 1L","line1":"1 31306U 07016A   26165.61258453 -.00000178  00000+0  00000+0 0  9996","line2":"2 31306   1.3151  81.5979 0005101   9.9967   7.3695  1.00271548 44963","kind":"satellite","owner":"Commercial GEO","country":"SES","countryCode":"SES","objectType":"PAYLOAD","intlDesignator":"2007-016A","launchDate":"2007-05-04","rcs":"LARGE","rcsM2":18.3351,"periodMinutes":1436.1,"inclinationDeg":1.31,"apogeeKm":35808,"perigeeKm":35765,"source":"offline","sourceUrl":"https://celestrak.org/NORAD/elements/gp.php?GROUP=geo&FORMAT=tle","tleEpochUtc":"2026-06-14T14:42:07.303Z","orbitClass":"GEO"},{"id":"31307","noradId":"31307","name":"GALAXY 17 (G-17)","line1":"1 31307U 07016B   26165.60053780 -.00000201  00000+0  00000+0 0  9999","line2":"2 31307   2.9657  79.9320 0004751  22.3024 291.8465  1.00269511 69774","kind":"satellite","owner":"United States","country":"United States","countryCode":"US","objectType":"PAYLOAD","intlDesignator":"2007-016B","launchDate":"2007-05-04","rcs":"LARGE","rcsM2":12.6832,"periodMinutes":1436.13,"inclinationDeg":2.96,"apogeeKm":35807,"perigeeKm":35767,"source":"offline","sourceUrl":"https://celestrak.org/NORAD/elements/gp.php?GROUP=geo&FORMAT=tle","tleEpochUtc":"2026-06-14T14:24:46.465Z","orbitClass":"GEO"},{"id":"32253","noradId":"32253","name":"INTELSAT 11 (IS-11)","line1":"1 32253U 07044B   26165.66301126 -.00000273  00000+0  00000+0 0  9996","line2":"2 32253   3.5589  78.6991 0002225  91.2271 108.6748  0.99051914 68422","kind":"satellite","owner":"Commercial GEO","country":"ITSO","countryCode":"ITSO","objectType":"PAYLOAD","intlDesignator":"2007-044B","launchDate":"2007-10-05","rcs":"LARGE","rcsM2":23.7915,"periodMinutes":1453.78,"inclinationDeg":3.56,"apogeeKm":36141,"perigeeKm":36123,"source":"offline","sourceUrl":"https://celestrak.org/NORAD/elements/gp.php?GROUP=geo&FORMAT=tle","tleEpochUtc":"2026-06-14T15:54:44.172Z","orbitClass":"GEO"},{"id":"32258","noradId":"32258","name":"WGS F1 (USA 195)","line1":"1 32258U 07046A   26165.46625670 -.00000260  00000+0  00000+0 0  9990","line2":"2 32258   0.0459  92.6535 0000229 307.6406 347.8306  1.00268575 52304","kind":"satellite","owner":"United States","country":"United States","countryCode":"US","objectType":"PAYLOAD","intlDesignator":"2007-046A","launchDate":"2007-10-11","rcs":"LARGE","rcsM2":15.8866,"periodMinutes":1436.05,"inclinationDeg":0.05,"apogeeKm":35788,"perigeeKm":35783,"source":"offline","sourceUrl":"https://celestrak.org/NORAD/elements/gp.php?GROUP=geo&FORMAT=tle","tleEpochUtc":"2026-06-14T11:11:24.578Z","orbitClass":"GEO"},{"id":"32294","noradId":"32294","name":"SKYNET 5B","line1":"1 32294U 07056B   26165.47977676  .00000143  00000+0  00000+0 0  9997","line2":"2 32294   5.2457  73.5387 0004010   3.2608  23.7844  1.00273486 68173","kind":"satellite","owner":"United Kingdom","country":"United Kingdom","countryCode":"UK","objectType":"PAYLOAD","intlDesignator":"2007-056B","launchDate":"2007-11-14","rcs":"LARGE","rcsM2":15.8866,"periodMinutes":1436.08,"inclinationDeg":5.24,"apogeeKm":35803,"perigeeKm":35769,"source":"offline","sourceUrl":"https://celestrak.org/NORAD/elements/gp.php?GROUP=geo&FORMAT=tle","tleEpochUtc":"2026-06-14T11:30:52.712Z","orbitClass":"GEO"},{"id":"32299","noradId":"32299","name":"ASTRA 4A","line1":"1 32299U 07057A   26165.61839123  .00000039  00000+0  00000+0 0  9997","line2":"2 32299   0.0121 349.5501 0002091  97.1712  43.6088  1.00270908 51627","kind":"satellite","owner":"Commercial GEO","country":"SES","countryCode":"SES","objectType":"PAYLOAD","intlDesignator":"2007-057A","launchDate":"2007-11-17","rcs":"LARGE","rcsM2":20,"periodMinutes":1436.11,"inclinationDeg":0.01,"apogeeKm":35796,"perigeeKm":35778,"source":"offline","sourceUrl":"https://celestrak.org/NORAD/elements/gp.php?GROUP=geo&FORMAT=tle","tleEpochUtc":"2026-06-14T14:50:29.002Z","orbitClass":"GEO"},{"id":"32388","noradId":"32388","name":"HORIZONS-2","line1":"1 32388U 07063B   26165.53147865 -.00000248  00000+0  00000+0 0  9992","line2":"2 32388   2.5953  80.6570 0003712   0.5240 299.1930  1.00269251 67787","kind":"satellite","owner":"ITSO","country":"ITSO","countryCode":"ITSO","objectType":"PAYLOAD","intlDesignator":"2007-063B","launchDate":"2007-12-21","rcs":"LARGE","rcsM2":17.3208,"periodMinutes":1436.13,"inclinationDeg":2.59,"apogeeKm":35803,"perigeeKm":35771,"source":"offline","sourceUrl":"https://celestrak.org/NORAD/elements/gp.php?GROUP=geo&FORMAT=tle","tleEpochUtc":"2026-06-14T12:45:19.755Z","orbitClass":"GEO"},{"id":"32404","noradId":"32404","name":"THURAYA-3","line1":"1 32404U 08001A   26165.63297258 -.00000069  00000+0  00000+0 0  9998","line2":"2 32404   5.9850  35.7960 0001566 160.3751  13.0693  1.00007380 67467","kind":"satellite","owner":"UAE","country":"UAE","countryCode":"UAE","objectType":"PAYLOAD","intlDesignator":"2008-001A","launchDate":"2008-01-15","rcs":"LARGE","rcsM2":7.9621,"periodMinutes":1439.89,"inclinationDeg":5.98,"apogeeKm":35867,"perigeeKm":35854,"source":"offline","sourceUrl":"https://celestrak.org/NORAD/elements/gp.php?GROUP=geo&FORMAT=tle","tleEpochUtc":"2026-06-14T15:11:28.830Z","orbitClass":"GEO"},{"id":"32487","noradId":"32487","name":"THOR 5","line1":"1 32487U 08006A   26165.61726455 -.00000003  00000+0  00000+0 0  9996","line2":"2 32487   0.0242 262.9482 0002268 187.2559  34.1675  1.00270657 67290","kind":"satellite","owner":"NOR","country":"NOR","countryCode":"NOR","objectType":"PAYLOAD","intlDesignator":"2008-006A","launchDate":"2008-02-11","rcs":"LARGE","rcsM2":31.6228,"periodMinutes":1436.12,"inclinationDeg":0.03,"apogeeKm":35797,"perigeeKm":35777,"source":"offline","sourceUrl":"https://celestrak.org/NORAD/elements/gp.php?GROUP=geo&FORMAT=tle","tleEpochUtc":"2026-06-14T14:48:51.657Z","orbitClass":"GEO"},{"id":"32708","noradId":"32708","name":"AMC-14","line1":"1 32708U 08011A   26165.63018356 -.00000049  00000+0  00000+0 0  9994","line2":"2 32708  24.0014  20.5501 0045901   6.9745 167.1031  1.00354461 68148","kind":"satellite","owner":"United States","country":"United States","countryCode":"US","objectType":"PAYLOAD","intlDesignator":"2008-011A","launchDate":"2008-03-14","rcs":"LARGE","rcsM2":13.1101,"periodMinutes":1434.92,"inclinationDeg":24,"apogeeKm":35957,"perigeeKm":35570,"source":"offline","sourceUrl":"https://celestrak.org/NORAD/elements/gp.php?GROUP=geo&FORMAT=tle","tleEpochUtc":"2026-06-14T15:07:27.859Z","orbitClass":"GEO"},{"id":"32729","noradId":"32729","name":"DIRECTV 11","line1":"1 32729U 08013A   26165.45516331 -.00000118  00000+0  00000+0 0  9992","line2":"2 32729   0.0106 283.4991 0000315  84.8654 319.0725  1.00271642 45562","kind":"satellite","owner":"United States","country":"United States","countryCode":"US","objectType":"PAYLOAD","intlDesignator":"2008-013A","launchDate":"2008-03-19","rcs":"LARGE","rcsM2":6.3246,"periodMinutes":1436.1,"inclinationDeg":0.01,"apogeeKm":35788,"perigeeKm":35785,"source":"offline","sourceUrl":"https://celestrak.org/NORAD/elements/gp.php?GROUP=geo&FORMAT=tle","tleEpochUtc":"2026-06-14T10:55:26.109Z","orbitClass":"GEO"},{"id":"32763","noradId":"32763","name":"ICO G1","line1":"1 32763U 08016A   26165.59906447 -.00000170  00000+0  00000+0 0  9997","line2":"2 32763   5.5322  36.1516 0002278  38.4403 311.1136  1.00272353 66510","kind":"satellite","owner":"United States","country":"United States","countryCode":"US","objectType":"PAYLOAD","intlDesignator":"2008-016A","launchDate":"2008-04-14","rcs":"LARGE","rcsM2":14.1589,"periodMinutes":1436.09,"inclinationDeg":5.53,"apogeeKm":35796,"perigeeKm":35776,"source":"offline","sourceUrl":"https://celestrak.org/NORAD/elements/gp.php?GROUP=geo&FORMAT=tle","tleEpochUtc":"2026-06-14T14:22:39.170Z","orbitClass":"GEO"},{"id":"32767","noradId":"32767","name":"VINASAT-1","line1":"1 32767U 08018A   26165.62517858 -.00000321  00000+0  00000+0 0  9999","line2":"2 32767   0.0129 322.2145 0001135 128.8289 168.8989  1.00271264 66561","kind":"satellite","owner":"VTNM","country":"VTNM","countryCode":"VTNM","objectType":"PAYLOAD","intlDesignator":"2008-018A","launchDate":"2008-04-18","rcs":"LARGE","rcsM2":12.5893,"periodMinutes":1436.1,"inclinationDeg":0.02,"apogeeKm":35791,"perigeeKm":35782,"source":"offline","sourceUrl":"https://celestrak.org/NORAD/elements/gp.php?GROUP=geo&FORMAT=tle","tleEpochUtc":"2026-06-14T15:00:15.429Z","orbitClass":"GEO"},{"id":"32768","noradId":"32768","name":"STAR ONE C2","line1":"1 32768U 08018B   26165.46192334 -.00000270  00000+0  00000+0 0  9993","line2":"2 32768   1.2341  82.4833 0002472   9.7079 271.8697  1.00269879 66626","kind":"satellite","owner":"BRAZ","country":"BRAZ","countryCode":"BRAZ","objectType":"PAYLOAD","intlDesignator":"2008-018B","launchDate":"2008-04-18","rcs":"LARGE","rcsM2":10.7588,"periodMinutes":1436.12,"inclinationDeg":1.23,"apogeeKm":35797,"perigeeKm":35777,"source":"offline","sourceUrl":"https://celestrak.org/NORAD/elements/gp.php?GROUP=geo&FORMAT=tle","tleEpochUtc":"2026-06-14T11:05:10.176Z","orbitClass":"GEO"},{"id":"32794","noradId":"32794","name":"AMOS-3","line1":"1 32794U 08022A   26165.62471792  .00000153  00000+0  00000+0 0  9992","line2":"2 32794   0.4488  86.2597 0002028  73.2377   5.3311  1.00474073 82312","kind":"satellite","owner":"ISRA","country":"ISRA","countryCode":"ISRA","objectType":"PAYLOAD","intlDesignator":"2008-022A","launchDate":"2008-04-28","rcs":"LARGE","rcsM2":42.973,"periodMinutes":1433.21,"inclinationDeg":0.45,"apogeeKm":35739,"perigeeKm":35722,"source":"offline","sourceUrl":"https://celestrak.org/NORAD/elements/gp.php?GROUP=geo&FORMAT=tle","tleEpochUtc":"2026-06-14T14:59:35.628Z","orbitClass":"GEO"},{"id":"32951","noradId":"32951","name":"GALAXY 18 (G-18)","line1":"1 32951U 08024A   26165.59308443  .00000032  00000+0  00000+0 0  9993","line2":"2 32951   0.0188  22.8247 0002676  62.4574 268.1147  1.00271690 45827","kind":"satellite","owner":"United States","country":"United States","countryCode":"US","objectType":"PAYLOAD","intlDesignator":"2008-024A","launchDate":"2008-05-21","rcs":"LARGE","rcsM2":20.9813,"periodMinutes":1436.1,"inclinationDeg":0.03,"apogeeKm":35798,"perigeeKm":35775,"source":"offline","sourceUrl":"https://celestrak.org/NORAD/elements/gp.php?GROUP=geo&FORMAT=tle","tleEpochUtc":"2026-06-14T14:14:02.494Z","orbitClass":"GEO"},{"id":"33051","noradId":"33051","name":"ZHONGXING-9","line1":"1 33051U 08028A   26165.63574593 -.00000242  00000+0  00000+0 0  9999","line2":"2 33051   0.7611  85.4035 0004017 337.4140 161.3762  1.00270368 66014","kind":"satellite","owner":"China (CNSA)","country":"China (CNSA)","countryCode":"PRC","objectType":"PAYLOAD","intlDesignator":"2008-028A","launchDate":"2008-06-09","rcs":"LARGE","rcsM2":19.9526,"periodMinutes":1436.11,"inclinationDeg":0.76,"apogeeKm":35804,"perigeeKm":35770,"source":"offline","sourceUrl":"https://celestrak.org/NORAD/elements/gp.php?GROUP=geo&FORMAT=tle","tleEpochUtc":"2026-06-14T15:15:28.448Z","orbitClass":"GEO"},{"id":"33055","noradId":"33055","name":"SKYNET 5C","line1":"1 33055U 08030A   26165.61388454 -.00000136  00000+0  00000+0 0  9995","line2":"2 33055   3.7823  77.0702 0003837  15.1118  13.9312  1.00271742 65938","kind":"satellite","owner":"United Kingdom","country":"United Kingdom","countryCode":"UK","objectType":"PAYLOAD","intlDesignator":"2008-030A","launchDate":"2008-06-12","rcs":"LARGE","rcsM2":29.0999,"periodMinutes":1436.09,"inclinationDeg":3.78,"apogeeKm":35803,"perigeeKm":35770,"source":"offline","sourceUrl":"https://celestrak.org/NORAD/elements/gp.php?GROUP=geo&FORMAT=tle","tleEpochUtc":"2026-06-14T14:43:59.624Z","orbitClass":"GEO"},{"id":"33056","noradId":"33056","name":"TURKSAT 3A","line1":"1 33056U 08030B   26165.62575792  .00000153  00000+0  00000+0 0  9998","line2":"2 33056   0.0509  78.8440 0005062 349.4104 101.9283  1.00269143 52335","kind":"satellite","owner":"TURK","country":"TURK","countryCode":"TURK","objectType":"PAYLOAD","intlDesignator":"2008-030B","launchDate":"2008-06-12","rcs":"LARGE","rcsM2":24.7919,"periodMinutes":1436.14,"inclinationDeg":0.05,"apogeeKm":35809,"perigeeKm":35766,"source":"offline","sourceUrl":"https://celestrak.org/NORAD/elements/gp.php?GROUP=geo&FORMAT=tle","tleEpochUtc":"2026-06-14T15:01:05.484Z","orbitClass":"GEO"},{"id":"33153","noradId":"33153","name":"INTELSAT 25 (IS-25)","line1":"1 33153U 08034A   26165.66030557 -.00000260  00000+0  00000+0 0  9999","line2":"2 33153   2.7033  80.4016 0003163  59.6000 133.5643  0.99035973 65667","kind":"satellite","owner":"Commercial GEO","country":"ITSO","countryCode":"ITSO","objectType":"PAYLOAD","intlDesignator":"2008-034A","launchDate":"2008-07-07","rcs":"LARGE","rcsM2":12.685,"periodMinutes":1454.01,"inclinationDeg":2.7,"apogeeKm":36149,"perigeeKm":36123,"source":"offline","sourceUrl":"https://celestrak.org/NORAD/elements/gp.php?GROUP=geo&FORMAT=tle","tleEpochUtc":"2026-06-14T15:50:50.401Z","orbitClass":"GEO"},{"id":"33207","noradId":"33207","name":"ECHOSTAR 11","line1":"1 33207U 08035A   26165.50670015 -.00000051  00000+0  00000+0 0  9990","line2":"2 33207   0.9981  84.2052 0002041 350.0709 261.1474  1.00271440 51185","kind":"satellite","owner":"United States","country":"United States","countryCode":"US","objectType":"PAYLOAD","intlDesignator":"2008-035A","launchDate":"2008-07-16","rcs":"LARGE","rcsM2":32.4063,"periodMinutes":1436.1,"inclinationDeg":1,"apogeeKm":35795,"perigeeKm":35778,"source":"offline","sourceUrl":"https://celestrak.org/NORAD/elements/gp.php?GROUP=geo&FORMAT=tle","tleEpochUtc":"2026-06-14T12:09:38.892Z","orbitClass":"GEO"},{"id":"33274","noradId":"33274","name":"SUPERBIRD-C2","line1":"1 33274U 08038A   26165.57306994 -.00000302  00000+0  00000+0 0  9995","line2":"2 33274   2.3543  81.2945 0005935  27.2609 136.5828  1.00268291105700","kind":"satellite","owner":"Japan (JAXA)","country":"Japan (JAXA)","countryCode":"JPN","objectType":"PAYLOAD","intlDesignator":"2008-038A","launchDate":"2008-08-14","rcs":"LARGE","rcsM2":12.6191,"periodMinutes":1436.14,"inclinationDeg":2.35,"apogeeKm":35812,"perigeeKm":35762,"source":"offline","sourceUrl":"https://celestrak.org/NORAD/elements/gp.php?GROUP=geo&FORMAT=tle","tleEpochUtc":"2026-06-14T13:45:13.242Z","orbitClass":"GEO"},{"id":"33278","noradId":"33278","name":"INMARSAT 4-F3","line1":"1 33278U 08039A   26165.50113972 -.00000137  00000+0  00000+0 0  9991","line2":"2 33278   4.2905  31.6226 0002820  56.0340 257.5489  1.00271768 46513","kind":"satellite","owner":"IM","country":"IM","countryCode":"IM","objectType":"PAYLOAD","intlDesignator":"2008-039A","launchDate":"2008-08-18","rcs":"LARGE","rcsM2":12.6191,"periodMinutes":1436.08,"inclinationDeg":4.29,"apogeeKm":35798,"perigeeKm":35774,"source":"offline","sourceUrl":"https://celestrak.org/NORAD/elements/gp.php?GROUP=geo&FORMAT=tle","tleEpochUtc":"2026-06-14T12:01:38.471Z","orbitClass":"GEO"}