OBJECT_NAME,OBJECT_ID,EPOCH,MEAN_MOTION,ECCENTRICITY,INCLINATION,RA_OF_ASC_NODE,ARG_OF_PERICENTER,MEAN_ANOMALY,EPHEMERIS_TYPE,CLASSIFICATION_TYPE,NORAD_CAT_ID,ELEMENT_SET_NO,REV_AT_EPOCH,BSTAR,MEAN_MOTION_DOT,MEAN_MOTION_DDOT
EUTELSAT 33F,2006-032A,2026-06-14T14:58:28.236288,1.00268988,.00036679,1.6550,82.2700,359.4356,78.9305,0,U,29270,999,4728,0,.161E-5,0
JCSAT-3A,2006-033A,2026-06-14T14:11:02.458752,1.00270367,.00018745,0.0118,0.5274,90.7048,152.4166,0,U,29272,999,4771,0,-.338E-5,0
KOREASAT 5 (MUGUNGWHA 5),2006-034A,2026-06-14T13:53:12.768000,1.00271031,.00013462,1.7786,83.0168,50.7832,90.4443,0,U,29349,999,4129,0,-.352E-5,0
DIRECTV 9S,2006-043A,2026-06-14T14:20:09.408768,1.00270819,.00048318,2.4141,80.9318,11.4469,284.3646,0,U,29494,999,5135,0,-.108E-5,0
OPTUS D1,2006-043B,2026-06-14T12:23:38.797728,1.00269854,.00033277,3.0280,79.6869,358.7199,162.3027,0,U,29495,999,7209,0,-.179E-5,0
BADR-4,2006-051A,2026-06-14T14:58:58.187712,1.00269580,.00047159,1.9982,81.1472,353.4169,87.5401,0,U,29526,999,5124,0,.161E-5,0
WILDBLUE-1,2006-054A,2026-06-14T14:17:24.671616,1.00270389,.00012343,2.7965,80.5140,359.2313,286.2964,0,U,29643,999,5376,0,-.44E-6,0
SKYNET 5A,2007-007B,2026-06-14T06:42:52.981632,1.00270215,.00040533,5.2935,73.7769,15.5800,9.1586,0,U,30794,999,7067,0,-.267E-5,0
ANIK F3,2007-009A,2026-06-14T14:15:09.887616,1.00271528,.00024123,1.1908,83.8761,357.4192,276.6445,0,U,31102,999,4653,0,.5E-7,0
ASTRA 1L,2007-016A,2026-06-14T14:42:07.303392,1.00271548,.00051014,1.3151,81.5979,9.9967,7.3695,0,U,31306,999,4496,0,-.178E-5,0
GALAXY 17 (G-17),2007-016B,2026-06-14T14:24:46.465920,1.00269511,.0004751,2.9657,79.9320,22.3024,291.8465,0,U,31307,999,6977,0,-.201E-5,0
INTELSAT 11 (IS-11),2007-044B,2026-06-14T15:54:44.172864,0.99051914,.00022256,3.5589,78.6991,91.2271,108.6748,0,U,32253,999,6842,0,-.273E-5,0
WGS F1 (USA 195),2007-046A,2026-06-14T11:11:24.578880,1.00268575,.00002296,0.0459,92.6535,307.6406,347.8306,0,U,32258,999,5230,0,-.26E-5,0
SKYNET 5B,2007-056B,2026-06-14T11:30:52.712064,1.00273486,.00040101,5.2457,73.5387,3.2608,23.7844,0,U,32294,999,6817,0,.143E-5,0
ASTRA 4A,2007-057A,2026-06-14T14:50:29.002272,1.00270908,.00020911,0.0121,349.5501,97.1712,43.6088,0,U,32299,999,5162,0,.39E-6,0
HORIZONS-2,2007-063B,2026-06-14T12:45:19.755360,1.00269251,.00037124,2.5953,80.6570,0.5240,299.1930,0,U,32388,999,6778,0,-.248E-5,0
THURAYA-3,2008-001A,2026-06-14T15:11:28.830912,1.00007380,.00015663,5.9850,35.7960,160.3751,13.0693,0,U,32404,999,6746,0,-.69E-6,0
THOR 5,2008-006A,2026-06-14T14:48:51.657120,1.00270657,.00022686,0.0242,262.9482,187.2559,34.1675,0,U,32487,999,6729,0,-.3E-7,0
AMC-14,2008-011A,2026-06-14T15:07:27.859584,1.00354461,.00459014,24.0014,20.5501,6.9745,167.1031,0,U,32708,999,6814,0,-.49E-6,0
DIRECTV 11,2008-013A,2026-06-14T10:55:26.109984,1.00271642,.0000315,0.0106,283.4991,84.8654,319.0725,0,U,32729,999,4556,0,-.118E-5,0
ICO G1,2008-016A,2026-06-14T14:22:39.170208,1.00272353,.00022784,5.5322,36.1516,38.4403,311.1136,0,U,32763,999,6651,0,-.17E-5,0
VINASAT-1,2008-018A,2026-06-14T15:00:15.429312,1.00271264,.00011355,0.0129,322.2145,128.8289,168.8989,0,U,32767,999,6656,0,-.321E-5,0
STAR ONE C2,2008-018B,2026-06-14T11:05:10.176576,1.00269879,.00024728,1.2341,82.4833,9.7079,271.8697,0,U,32768,999,6662,0,-.27E-5,0
AMOS-3,2008-022A,2026-06-14T14:59:35.628288,1.00474073,.0002028,0.4488,86.2597,73.2377,5.3311,0,U,32794,999,8231,0,.153E-5,0
GALAXY 18 (G-18),2008-024A,2026-06-14T14:14:02.494752,1.00271690,.00026765,0.0188,22.8247,62.4574,268.1147,0,U,32951,999,4582,0,.32E-6,0
ZHONGXING-9,2008-028A,2026-06-14T15:15:28.448352,1.00270368,.00040174,0.7611,85.4035,337.4140,161.3762,0,U,33051,999,6601,0,-.242E-5,0
SKYNET 5C,2008-030A,2026-06-14T14:43:59.624256,1.00271742,.00038377,3.7823,77.0702,15.1118,13.9312,0,U,33055,999,6593,0,-.136E-5,0
TURKSAT 3A,2008-030B,2026-06-14T15:01:05.484288,1.00269143,.00050623,0.0509,78.8440,349.4104,101.9283,0,U,33056,999,5233,0,.153E-5,0
INTELSAT 25 (IS-25),2008-034A,2026-06-14T15:50:50.401248,0.99035973,.00031634,2.7033,80.4016,59.6000,133.5643,0,U,33153,999,6566,0,-.26E-5,0
ECHOSTAR 11,2008-035A,2026-06-14T12:09:38.892960,1.00271440,.00020418,0.9981,84.2052,350.0709,261.1474,0,U,33207,999,5118,0,-.51E-6,0
SUPERBIRD-C2,2008-038A,2026-06-14T13:45:13.242816,1.00268291,.00059358,2.3543,81.2945,27.2609,136.5828,0,U,33274,999,10570,0,-.302E-5,0
INMARSAT 4-F3,2008-039A,2026-06-14T12:01:38.471808,1.00271768,.00028208,4.2905,31.6226,56.0340,257.5489,0,U,33278,999,4651,0,-.137E-5,0
